FENGYUN 1C DEB          
1 30119U 99025RY  17345.77896529  .00000810  00000-0  43517-3 0  9994
2 30119  97.9833 261.3949 0152909 153.8880 270.2027 14.09360320559207
